NORAD_CAT_ID,OBJECT_NAME,OBJECT_TYPE,EPOCH,MEAN_MOTION,ECCENTRICITY,INCLINATION,RA_OF_ASC_NODE,ARG_OF_PERICENTER,MEAN_ANOMALY,BSTAR,MEAN_MOTION_DOT,MEAN_MOTION_DDOT,TLE_LINE0,TLE_LINE1,TLE_LINE2,SEMIMAJOR_AXIS,PERIOD,APOGEE,PERIGEE,DECAYED
52122.0,STARLINK-3726,PAYLOAD,2024-07-15 14:23:41,15.08848327,0.0001425,53.2166,262.0105,94.8107,265.3047,1.5827e-05,-3.6e-07,0.0,0 STARLINK-3726,1 52122U 22029AL  24197.59978903 -.00000036  00000-0  15827-4 0  9997,2 52122  53.2166 262.0105 0001425  94.8107 265.3047 15.08848327129896,6917.855,95.437,540.706,538.734,0.0
52122.0,STARLINK-3726,PAYLOAD,2024-07-16 04:42:10,15.08835443,0.000137,53.2155,259.332,97.5775,262.5373,-4.2909e-06,-3.56e-06,0.0,0 STARLINK-3726,1 52122U 22029AL  24198.19595834 -.00000356  00000-0 -42909-5 0  9990,2 52122  53.2155 259.3320 0001370  97.5775 262.5373 15.08835443129988,6917.894,95.438,540.707,538.812,0.0
52122.0,STARLINK-3726,PAYLOAD,2024-07-16 11:03:42,15.08845756,0.0001357,53.2158,258.1427,90.5276,269.5872,5.34e-05,5.62e-06,0.0,0 STARLINK-3726,1 52122U 22029AL  24198.46091072  .00000562  00000-0  53400-4 0  9999,2 52122  53.2158 258.1427 0001357  90.5276 269.5872 15.08845756130026,6917.863,95.437,540.667,538.789,0.0
52122.0,STARLINK-3726,PAYLOAD,2024-07-17 10:54:30,15.08840074,0.0001444,53.2161,253.6869,100.2664,259.8491,6.1789e-05,6.96e-06,0.0,0 STARLINK-3726,1 52122U 22029AL  24199.45451561  .00000696  00000-0  61789-4 0  9999,2 52122  53.2161 253.6869 0001444 100.2664 259.8491 15.08840074130170,6917.88,95.438,540.744,538.746,0.0
52122.0,STARLINK-3726,PAYLOAD,2024-07-18 10:45:17,15.08842437,0.0001563,53.2164,249.2278,109.1014,251.0147,7.4915e-05,9.05e-06,0.0,0 STARLINK-3726,1 52122U 22029AL  24200.44811706  .00000905  00000-0  74915-4 0  9990,2 52122  53.2164 249.2278 0001563 109.1014 251.0147 15.08842437130321,6917.873,95.437,540.819,538.657,0.0
52122.0,STARLINK-3726,PAYLOAD,2024-07-19 02:39:08,15.08839748,0.0001399,53.216,246.2533,93.6016,266.5136,0.00011313,1.513e-05,0.0,0 STARLINK-3726,1 52122U 22029AL  24201.11051893  .00001513  00000-0  11313-3 0  9996,2 52122  53.2160 246.2533 0001399  93.6016 266.5136 15.08839748130425,6917.881,95.438,540.714,538.778,0.0
52122.0,STARLINK-3726,PAYLOAD,2024-07-19 10:36:05,15.0882123,0.0001532,53.2161,244.7639,86.3638,273.7529,0.00033773,5.088e-05,0.0,0 STARLINK-3726,1 52122U 22029AL  24201.44172651  .00005088  00000-0  33773-3 0  9993,2 52122  53.2161 244.7639 0001532  86.3638 273.7529 15.08821230130472,6917.938,95.439,540.863,538.743,0.0
52122.0,STARLINK-3726,PAYLOAD,2024-07-19 20:08:23,15.08839322,0.0001391,53.2161,242.9797,84.0136,276.1015,0.00010541,1.39e-05,0.0,0 STARLINK-3726,1 52122U 22029AL  24201.83916063  .00001390  00000-0  10541-3 0  9999,2 52122  53.2161 242.9797 0001391  84.0136 276.1015 15.08839322130533,6917.882,95.438,540.71,538.785,0.0
52122.0,STARLINK-3726,PAYLOAD,2024-07-20 10:26:51,15.08846583,0.0001419,53.2159,240.302,88.7577,271.3578,0.00011719,1.578e-05,0.0,0 STARLINK-3726,1 52122U 22029AL  24202.43531584  .00001578  00000-0  11719-3 0  9993,2 52122  53.2159 240.3020 0001419  88.7577 271.3578 15.08846583130620,6917.86,95.437,540.707,538.744,0.0
52122.0,STARLINK-3726,PAYLOAD,2024-07-20 19:59:11,15.08834131,0.0001493,53.2163,238.5172,85.723,274.3933,4.8573e-05,4.85e-06,0.0,0 STARLINK-3726,1 52122U 22029AL  24202.83276718  .00000485  00000-0  48573-4 0  9997,2 52122  53.2163 238.5172 0001493  85.7230 274.3933 15.08834131130687,6917.898,95.438,540.796,538.73,0.0
52122.0,STARLINK-3726,PAYLOAD,2024-07-21 02:20:44,15.08821635,0.0001948,53.2158,237.3276,87.1808,272.9407,-7.116e-05,-1.42e-05,0.0,0 STARLINK-3726,1 52122U 22029AL  24203.09774205 -.00001420  00000-0 -71160-4 0  9990,2 52122  53.2158 237.3276 0001948  87.1808 272.9407 15.08821635130725,6917.937,95.439,541.149,538.454,0.0
52122.0,STARLINK-3726,PAYLOAD,2024-07-21 08:42:18,15.08810122,0.0001211,53.2159,236.1387,90.8344,269.2787,-0.00015549,-2.76e-05,0.0,0 STARLINK-3726,1 52122U 22029AL  24203.36271370 -.00002760  00000-0 -15549-3 0  9991,2 52122  53.2159 236.1387 0001211  90.8344 269.2787 15.08810122130768,6917.972,95.439,540.674,538.999,0.0
52122.0,STARLINK-3726,PAYLOAD,2024-07-22 05:22:17,15.08837825,0.0001252,53.2151,232.2768,85.1484,274.9651,8.891e-05,1.127e-05,0.0,0 STARLINK-3726,1 52122U 22029AL  24204.22381798  .00001127  00000-0  88910-4 0  9990,2 52122  53.2151 232.2768 0001252  85.1484 274.9651 15.08837825130893,6917.887,95.438,540.618,538.886,0.0
52122.0,STARLINK-3726,PAYLOAD,2024-07-22 08:33:04,15.08842289,0.0001407,53.2151,231.6836,62.1757,297.9378,0.00020625,2.996e-05,0.0,0 STARLINK-3726,1 52122U 22029AL  24204.35629986  .00002996  00000-0  20625-3 0  9991,2 52122  53.2151 231.6836 0001407  62.1757 297.9378 15.08842289130916,6917.873,95.437,540.712,538.765,0.0
52122.0,STARLINK-3726,PAYLOAD,2024-07-23 08:23:50,15.08874499,0.0001194,53.2153,227.2196,74.7932,285.3192,0.00090704,0.00014191,0.0,0 STARLINK-3726,1 52122U 22029AL  24205.34989029  .00014191  00000-0  90704-3 0  9993,2 52122  53.2153 227.2196 0001194  74.7932 285.3192 15.08874499131065,6917.775,95.435,540.466,538.814,0.0
52122.0,STARLINK-3726,PAYLOAD,2024-07-24 05:03:50,15.08854566,0.0001132,53.2147,223.3527,76.9912,283.1207,0.00016582,2.353e-05,0.0,0 STARLINK-3726,1 52122U 22029AL  24206.21100450  .00002353  00000-0  16582-3 0  9992,2 52122  53.2147 223.3527 0001132  76.9912 283.1207 15.08854566131197,6917.836,95.437,540.484,538.918,0.0
52122.0,STARLINK-3726,PAYLOAD,2024-07-24 06:39:13,15.08855174,0.0001132,53.2145,223.0545,73.2269,286.8848,9.3902e-05,1.208e-05,0.0,0 STARLINK-3726,1 52122U 22029AL  24206.27724436  .00001208  00000-0  93902-4 0  9994,2 52122  53.2145 223.0545 0001132  73.2269 286.8848 15.08855174131206,6917.834,95.437,540.482,538.916,0.0
52122.0,STARLINK-3726,PAYLOAD,2024-07-25 04:54:37,15.08846552,0.0001174,53.2147,218.8916,78.6749,281.4375,-2.526e-05,-6.9e-06,0.0,0 STARLINK-3726,1 52122U 22029AL  24207.20460384 -.00000690  00000-0 -25260-4 0  9995,2 52122  53.2147 218.8916 0001174  78.6749 281.4375 15.08846552131341,6917.86,95.437,540.538,538.913,0.0
52122.0,STARLINK-3726,PAYLOAD,2024-07-25 06:30:00,15.08846722,0.000121,53.2145,218.5942,71.8822,288.2302,-1.1014e-05,-4.63e-06,0.0,0 STARLINK-3726,1 52122U 22029AL  24207.27084364 -.00000463  00000-0 -11014-4 0  9992,2 52122  53.2145 218.5942 0001210  71.8822 288.2302 15.08846722131358,6917.86,95.437,540.562,538.888,0.0
52122.0,STARLINK-3726,PAYLOAD,2024-07-26 04:45:25,15.08841394,0.0001247,53.2149,214.4308,86.7446,273.3689,0.00013152,1.806e-05,0.0,0 STARLINK-3726,1 52122U 22029AL  24208.19820614  .00001806  00000-0  13152-3 0  9994,2 52122  53.2149 214.4308 0001247  86.7446 273.3689 15.08841394131498,6917.876,95.437,540.604,538.878,0.0
52122.0,STARLINK-3726,PAYLOAD,2024-07-26 09:31:34,15.08841424,0.0001286,53.215,213.5388,78.6697,281.4439,0.00011899,1.606e-05,0.0,0 STARLINK-3726,1 52122U 22029AL  24208.39692636  .00001606  00000-0  11899-3 0  9991,2 52122  53.2150 213.5388 0001286  78.6697 281.4439 15.08841424131520,6917.876,95.437,540.631,538.851,0.0
52122.0,STARLINK-3726,PAYLOAD,2024-07-26 17:28:30,15.08840932,0.0001251,53.2151,212.0529,83.5064,276.607,7.9434e-05,9.77e-06,0.0,0 STARLINK-3726,1 52122U 22029AL  24208.72812646  .00000977  00000-0  79434-4 0  9993,2 52122  53.2151 212.0529 0001251  83.5064 276.6070 15.08840932131572,6917.878,95.437,540.608,538.877,0.0
52122.0,STARLINK-3726,PAYLOAD,2024-07-27 04:36:12,15.08837703,0.000126,53.2149,209.971,83.6368,276.4767,2.8321e-05,1.63e-06,0.0,0 STARLINK-3726,1 52122U 22029AL  24209.19180871  .00000163  00000-0  28321-4 0  9999,2 52122  53.2149 209.9710 0001260  83.6368 276.4767 15.08837703131645,6917.887,95.438,540.624,538.881,0.0
52122.0,STARLINK-3726,PAYLOAD,2024-07-27 09:22:21,15.08840953,0.0001299,53.215,209.079,83.461,276.653,7.5523e-05,9.14e-06,0.0,0 STARLINK-3726,1 52122U 22029AL  24209.39052735  .00000914  00000-0  75523-4 0  9998,2 52122  53.2150 209.0790 0001299  83.4610 276.6530 15.08840953131670,6917.877,95.437,540.641,538.844,0.0
52122.0,STARLINK-3726,PAYLOAD,2024-07-28 09:13:08,15.08843904,0.0001259,53.2151,204.6169,87.2032,272.9105,0.00010427,1.372e-05,0.0,0 STARLINK-3726,1 52122U 22029AL  24210.38412668  .00001372  00000-0  10427-3 0  9994,2 52122  53.2151 204.6169 0001259  87.2032 272.9105 15.08843904131821,6917.868,95.437,540.604,538.862,0.0
52122.0,STARLINK-3726,PAYLOAD,2024-07-29 05:53:09,15.08842945,0.0001316,53.2159,200.749,97.8855,262.2287,0.0001079,1.43e-05,0.0,0 STARLINK-3726,1 52122U 22029AL  24211.24524758  .00001430  00000-0  10790-3 0  9992,2 52122  53.2159 200.7490 0001316  97.8855 262.2287 15.08842945131958,6917.871,95.437,540.647,538.826,0.0
52122.0,STARLINK-3726,PAYLOAD,2024-07-30 08:54:42,15.08843248,0.0001397,53.2162,195.6946,98.2889,261.8261,7.7872e-05,9.52e-06,0.0,0 STARLINK-3726,1 52122U 22029AL  24212.37132775  .00000952  00000-0  77872-4 0  9994,2 52122  53.2162 195.6946 0001397  98.2889 261.8261 15.08843248132125,6917.87,95.437,540.702,538.769,0.0
52122.0,STARLINK-3726,PAYLOAD,2024-07-31 05:34:43,15.08843688,0.0001427,53.2167,191.8339,98.5229,261.5925,9.5718e-05,1.236e-05,0.0,0 STARLINK-3726,1 52122U 22029AL  24213.23244767  .00001236  00000-0  95718-4 0  9990,2 52122  53.2167 191.8339 0001427  98.5229 261.5925 15.08843688132255,6917.869,95.437,540.721,538.747,0.0
52122.0,STARLINK-3726,PAYLOAD,2024-07-31 21:28:35,15.08840212,0.0001231,53.2155,188.8576,90.8454,269.2679,5.5271e-05,5.92e-06,0.0,0 STARLINK-3726,1 52122U 22029AL  24213.89485106  .00000592  00000-0  55271-4 0  9990,2 52122  53.2155 188.8576 0001231  90.8454 269.2679 15.08840212132351,6917.88,95.438,540.596,538.893,0.0
52122.0,STARLINK-3726,PAYLOAD,2024-08-01 05:25:31,15.08837708,0.0001294,53.2159,187.3728,95.3545,264.7595,2.4813e-05,1.07e-06,0.0,0 STARLINK-3726,1 52122U 22029AL  24214.22605414  .00000107  00000-0  24813-4 0  9994,2 52122  53.2159 187.3728 0001294  95.3545 264.7595 15.08837708132407,6917.887,95.438,540.648,538.857,0.0
